GLOBALSTAR M063         
1 26081U 00008A   25202.78072697 -.00000079  00000+0  57472-4 0  9997
2 26081  51.9972  20.4648 0004990  32.8070 339.9768 11.86173714161684
GLOBALSTAR M062         
1 26082U 00008B   25202.86845538 -.00000081  00000+0  12514-3 0  9999
2 26082  51.9872 353.7953 0007268 178.8988 336.5888 12.43469780163431
GLOBALSTAR M060         
1 26083U 00008C   25202.81031771 -.00000135  00000+0 -43914-3 0  9990
2 26083  52.0041 318.8732 0003543 185.4470 343.2539 12.17663430156586
GLOBALSTAR M065         
1 31571U 07020A   25203.08306994 -.00000116  00000+0 -71168-4 0  9993
2 31571  51.9889 120.0552 0010598  26.8680  76.7272 12.62010208838111
GLOBALSTAR M069         
1 31573U 07020C   25202.89407017 -.00000083  00000+0  88222-4 0  9992
2 31573  51.9949 106.9868 0000512 202.8217 234.9559 12.23447351838374
GLOBALSTAR M072         
1 31574U 07020D   25203.14640419 -.00000045  00000+0  54197-3 0  9998
2 31574  51.9916 258.9029 0000891  51.5760 334.3050 11.91650672835967
GLOBALSTAR M071         
1 31576U 07020F   25203.06946308 -.00000165  00000+0 -73420-3 0  9991
2 31576  52.0055 133.0828 0000423 143.1674 230.3766 12.18256271838103
